HELIOS 2A               
1 28492U 04049A   22263.40991636  .00001355  00000+0  13501-3 0  9991
2 28492  98.2397 210.9026 0015330 126.9250 233.3385 14.93334717949294
CFESAT                  
1 30777U 07006F   22262.75752668  .00126945  00000+0  10070-2 0  9993
2 30777  35.4170  31.0580 0001374  57.9640 302.1230 15.69910154863930
SPIRALE A               
1 33751U 09008C   22262.74496881  .00000152  00000+0  62757-3 0  9994
2 33751   1.9722 165.9332 5444936  63.6603 341.6105  4.58865678199141
SPIRALE B               
1 33752U 09008D   22263.00578482  .00003640  00000+0  97736-3 0  9993
2 33752   2.2026  63.2055 6855498 254.4344  25.9131  2.82990608127809
SAPPHIRE                
1 39088U 13009C   22262.80176760  .00000069  00000+0  39615-4 0  9992
2 39088  98.4245  96.1921 0011434   2.4455 357.6784 14.34322637500643
